NORAD_CAT_ID,OBJECT_NAME,OBJECT_TYPE,EPOCH,MEAN_MOTION,ECCENTRICITY,INCLINATION,RA_OF_ASC_NODE,ARG_OF_PERICENTER,MEAN_ANOMALY,BSTAR,MEAN_MOTION_DOT,MEAN_MOTION_DDOT,TLE_LINE0,TLE_LINE1,TLE_LINE2,SEMIMAJOR_AXIS,PERIOD,APOGEE,PERIGEE,DECAYED
54013.0,STARLINK-5098,PAYLOAD,2023-03-06 13:39:02,15.08876203,0.0001544,53.2181,98.2128,98.8992,261.2175,0.0012029,0.00018927,0.0,0 STARLINK-5098,1 54013U 22125BB  23065.56878263  .00018927  00000-0  12029-2 0  9999,2 54013  53.2181  98.2128 0001544  98.8992 261.2175 15.08876203 23676,6917.77,95.435,540.703,538.567,0.0
54013.0,STARLINK-5098,PAYLOAD,2023-03-07 08:43:41,15.08839672,0.0001323,53.2186,94.6472,99.5917,260.5225,0.00043266,6.604e-05,0.0,0 STARLINK-5098,1 54013U 22125BB  23066.36367311  .00006604  00000-0  43266-3 0  9992,2 54013  53.2186  94.6472 0001323  99.5917 260.5225 15.08839672 23849,6917.881,95.438,540.662,538.831,0.0
54013.0,STARLINK-5098,PAYLOAD,2023-03-07 18:16:00,15.0885677,0.0001373,53.2184,92.8595,127.1933,232.9184,0.0018084,0.00028623,0.0,0 STARLINK-5098,1 54013U 22125BB  23066.76111173  .00028623  00000-0  18084-2 0  9993,2 54013  53.2184  92.8595 0001373 127.1933 232.9184 15.08856770 23850,6917.829,95.436,540.644,538.744,0.0
54013.0,STARLINK-5098,PAYLOAD,2023-03-08 02:12:56,15.08827748,0.0001277,53.2174,91.3762,111.05,249.0629,0.0018996,0.00030063,0.0,0 STARLINK-5098,1 54013U 22125BB  23067.09232032  .00030063  00000-0  18996-2 0  9991,2 54013  53.2174  91.3762 0001277 111.0500 249.0629 15.08827748 23951,6917.918,95.438,540.666,538.899,0.0
54013.0,STARLINK-5098,PAYLOAD,2023-03-08 06:59:05,15.08856265,0.0001186,53.2177,90.4838,107.7863,252.3258,0.0018986,0.00030071,0.0,0 STARLINK-5098,1 54013U 22125BB  23067.29103726  .00030071  00000-0  18986-2 0  9998,2 54013  53.2177  90.4838 0001186 107.7863 252.3258 15.08856265 23985,6917.831,95.437,540.516,538.875,0.0
54013.0,STARLINK-5098,PAYLOAD,2023-03-08 18:06:47,15.08861866,0.0001806,53.2179,88.4022,87.8007,272.3192,0.0011885,0.00018689,0.0,0 STARLINK-5098,1 54013U 22125BB  23067.75471441  .00018689  00000-0  11885-2 0  9993,2 54013  53.2179  88.4022 0001806  87.8007 272.3192 15.08861866 24057,6917.814,95.436,540.928,538.429,0.0
54013.0,STARLINK-5098,PAYLOAD,2023-03-09 17:57:34,15.08842189,0.0001934,53.2171,83.9389,90.1348,269.9866,0.00034494,5.206e-05,0.0,0 STARLINK-5098,1 54013U 22125BB  23068.74831489  .00005206  00000-0  34494-3 0  9998,2 54013  53.2171  83.9389 0001934  90.1348 269.9866 15.08842189 24206,6917.874,95.437,541.077,538.401,0.0
54013.0,STARLINK-5098,PAYLOAD,2023-03-10 17:48:21,15.08833861,0.0001632,53.218,79.481,82.2112,277.9066,7.5445e-05,9.13e-06,0.0,0 STARLINK-5098,1 54013U 22125BB  23069.74191600  .00000913  00000-0  75445-4 0  9995,2 54013  53.2180  79.4810 0001632  82.2112 277.9066 15.08833861 24355,6917.899,95.438,540.893,538.635,0.0
54013.0,STARLINK-5098,PAYLOAD,2023-03-11 12:52:59,15.08847748,0.0001506,53.2179,75.9129,79.9491,280.1671,0.0010424,0.00016344,0.0,0 STARLINK-5098,1 54013U 22125BB  23070.53679911  .00016344  00000-0  10424-2 0  9999,2 54013  53.2179  75.9129 0001506  79.9491 280.1671 15.08847748 24425,6917.857,95.437,540.764,538.68,0.0
54013.0,STARLINK-5098,PAYLOAD,2023-03-12 09:33:00,15.08836108,0.0001646,53.2194,72.0467,81.0238,279.094,0.00026065,3.862e-05,0.0,0 STARLINK-5098,1 54013U 22125BB  23071.39792354  .00003862  00000-0  26065-3 0  9991,2 54013  53.2194  72.0467 0001646  81.0238 279.0940 15.08836108 24607,6917.892,95.438,540.896,538.619,0.0
54013.0,STARLINK-5098,PAYLOAD,2023-03-12 11:08:23,15.08852787,0.0001681,53.2193,71.7503,86.7984,273.32,0.00042112,6.423e-05,0.0,0 STARLINK-5098,1 54013U 22125BB  23071.46415882  .00006423  00000-0  42112-3 0  9994,2 54013  53.2193  71.7503 0001681  86.7984 273.3200 15.08852787 24610,6917.841,95.437,540.869,538.543,0.0
54013.0,STARLINK-5098,PAYLOAD,2023-03-13 10:59:10,15.08847944,0.000193,53.2202,67.2926,72.2946,287.8257,0.00022853,3.352e-05,0.0,0 STARLINK-5098,1 54013U 22125BB  23072.45776074  .00003352  00000-0  22853-3 0  9995,2 54013  53.2202  67.2926 0001930  72.2946 287.8257 15.08847944 24762,6917.856,95.437,541.056,538.386,0.0
54013.0,STARLINK-5098,PAYLOAD,2023-03-13 23:42:16,15.08836626,0.0001589,53.2208,64.9127,78.0875,282.0295,-0.00013582,-2.449e-05,0.0,0 STARLINK-5098,1 54013U 22125BB  23072.98768532 -.00002449  00000-0 -13582-3 0  9990,2 54013  53.2208  64.9127 0001589  78.0875 282.0295 15.08836626 24843,6917.891,95.438,540.855,538.656,0.0
54013.0,STARLINK-5098,PAYLOAD,2023-03-14 09:14:34,15.0884214,0.0001616,53.2184,63.1264,103.6232,256.4941,-4.2941e-05,-9.71e-06,0.0,0 STARLINK-5098,1 54013U 22125BB  23073.38511965 -.00000971  00000-0 -42941-4 0  9991,2 54013  53.2184  63.1264 0001616 103.6232 256.4941 15.08842140 24900,6917.874,95.437,540.857,538.621,0.0
54013.0,STARLINK-5098,PAYLOAD,2023-03-15 04:19:11,15.08862601,0.0002131,53.2201,59.5596,85.3854,274.7381,0.00012446,1.694e-05,0.0,0 STARLINK-5098,1 54013U 22125BB  23074.17999124  .00001694  00000-0  12446-3 0  9993,2 54013  53.2201  59.5596 0002131  85.3854 274.7381 15.08862601 25025,6917.811,95.436,541.15,538.202,0.0
54013.0,STARLINK-5098,PAYLOAD,2023-03-15 10:40:42,15.08876167,0.000238,53.2191,58.37,76.955,283.1707,0.00036169,5.478e-05,0.0,0 STARLINK-5098,1 54013U 22125BB  23074.44494201  .00005478  00000-0  36169-3 0  9991,2 54013  53.2191  58.3700 0002380  76.9550 283.1707 15.08876167 25064,6917.77,95.435,541.281,537.988,0.0
54013.0,STARLINK-5098,PAYLOAD,2023-03-15 21:48:26,15.08861563,0.0005847,53.2203,56.2902,54.2841,305.8695,0.00025612,3.792e-05,0.0,0 STARLINK-5098,1 54013U 22125BB  23074.90863604  .00003792  00000-0  25612-3 0  9997,2 54013  53.2203  56.2902 0005847  54.2841 305.8695 15.08861563 25086,6917.814,95.436,543.724,535.635,0.0
54013.0,STARLINK-5098,PAYLOAD,2023-03-16 05:45:21,15.08841038,9.21e-05,53.2194,54.8042,87.024,273.0857,3.946e-05,3.4e-06,0.0,0 STARLINK-5098,1 54013U 22125BB  23075.23983794  .00000340  00000-0  39460-4 0  9990,2 54013  53.2194  54.8042 0000921  87.0240 273.0857 15.08841038 25181,6917.877,95.437,540.379,539.105,0.0
54013.0,STARLINK-5098,PAYLOAD,2023-03-16 10:31:31,15.088507,0.0001004,53.2194,53.9105,94.7881,265.3225,0.00034752,5.249e-05,0.0,0 STARLINK-5098,1 54013U 22125BB  23075.43855351  .00005249  00000-0  34752-3 0  9990,2 54013  53.2194  53.9105 0001004  94.7881 265.3225 15.08850700 25213,6917.848,95.437,540.407,539.018,0.0
54013.0,STARLINK-5098,PAYLOAD,2023-03-16 15:17:40,15.08827722,0.0001239,53.2194,53.0174,81.876,278.2372,0.00030404,4.553e-05,0.0,0 STARLINK-5098,1 54013U 22125BB  23075.63727925  .00004553  00000-0  30404-3 0  9994,2 54013  53.2194  53.0174 0001239  81.8760 278.2372 15.08827722 25240,6917.918,95.438,540.64,538.926,0.0
54013.0,STARLINK-5098,PAYLOAD,2023-03-16 21:39:13,15.08832868,0.0001202,53.219,51.8281,76.2505,283.8621,0.0008563,0.00013364,0.0,0 STARLINK-5098,1 54013U 22125BB  23075.90224452  .00013364  00000-0  85630-3 0  9992,2 54013  53.2190  51.8281 0001202  76.2505 283.8621 15.08832868 25231,6917.902,95.438,540.599,538.936,0.0
54013.0,STARLINK-5098,PAYLOAD,2023-03-17 10:22:19,15.08844574,8.88e-05,53.2184,49.4506,74.6153,285.4937,0.0014514,0.00022889,0.0,0 STARLINK-5098,1 54013U 22125BB  23076.43216579  .00022889  00000-0  14514-2 0  9996,2 54013  53.2184  49.4506 0000888  74.6153 285.4937 15.08844574 25311,6917.866,95.437,540.346,539.117,0.0
54013.0,STARLINK-5098,PAYLOAD,2023-03-17 15:08:28,15.08840062,5.03e-05,53.2185,48.5573,81.2868,278.8181,0.00086544,0.00013512,0.0,0 STARLINK-5098,1 54013U 22125BB  23076.63088678  .00013512  00000-0  86544-3 0  9991,2 54013  53.2185  48.5573 0000503  81.2868 278.8181 15.08840062 25345,6917.88,95.438,540.093,539.397,0.0
54013.0,STARLINK-5098,PAYLOAD,2023-03-18 10:13:05,15.0887214,8.56e-05,53.2176,44.9891,84.8824,275.2266,0.0015516,0.00024514,0.0,0 STARLINK-5098,1 54013U 22125BB  23077.42576005  .00024514  00000-0  15516-2 0  9999,2 54013  53.2176  44.9891 0000856  84.8824 275.2266 15.08872140 25516,6917.782,95.436,540.239,539.055,0.0
54013.0,STARLINK-5098,PAYLOAD,2023-03-18 14:59:15,15.08843674,8.98e-05,53.2181,44.0972,80.0012,280.1081,0.00028212,4.205e-05,0.0,0 STARLINK-5098,1 54013U 22125BB  23077.62448477  .00004205  00000-0  28212-3 0  9995,2 54013  53.2181  44.0972 0000898  80.0012 280.1081 15.08843674 25549,6917.869,95.437,540.355,539.113,0.0
54013.0,STARLINK-5098,PAYLOAD,2023-03-19 14:00:01,15.0881862,9.96e-05,53.2179,39.7926,99.2986,72.0237,8.8078e-05,1.114e-05,0.0,0 STARLINK-5098,1 54013U 22125BB  23078.58334491  .00001114  00000-0  88078-4 0  9994,2 54013  53.2179  39.7926 0000996  99.2986  72.0237 15.08818620 25697,6917.946,95.439,540.5,539.122,0.0
54013.0,STARLINK-5098,PAYLOAD,2023-03-19 22:00:00,15.08834738,0.0001135,53.2183,38.2958,108.1162,74.771,0.0019638,0.000311,0.0,0 STARLINK-5098,1 54013U 22125BB  23078.91667824  .00031100  00000-0  19638-2 0  9992,2 54013  53.2183  38.2958 0001135 108.1162  74.7710 15.08834738  1308,6917.896,95.438,540.547,538.976,0.0
54013.0,STARLINK-5098,PAYLOAD,2023-03-20 03:33:07,15.08842651,0.000106,53.2185,37.2576,101.4993,258.6118,0.0015283,0.0002412,0.0,0 STARLINK-5098,1 54013U 22125BB  23079.14800671  .00024120  00000-0  15283-2 0  9993,2 54013  53.2185  37.2576 0001060 101.4993 258.6118 15.08842651 25775,6917.872,95.437,540.471,539.004,0.0
54013.0,STARLINK-5098,PAYLOAD,2023-03-20 06:43:53,15.08850603,0.0001093,53.2187,36.6632,98.2563,261.8553,0.0019359,0.00030665,0.0,0 STARLINK-5098,1 54013U 22125BB  23079.28048601  .00030665  00000-0  19359-2 0  9994,2 54013  53.2187  36.6632 0001093  98.2563 261.8553 15.08850603 25747,6917.848,95.437,540.469,538.957,0.0
54013.0,STARLINK-5098,PAYLOAD,2023-03-21 03:23:54,15.08863141,0.0001034,53.2193,32.7974,113.59,246.5201,0.0018003,0.00028498,0.0,0 STARLINK-5098,1 54013U 22125BB  23080.14160505  .00028498  00000-0  18003-2 0  9995,2 54013  53.2193  32.7974 0001034 113.5900 246.5201 15.08863141 25922,6917.81,95.436,540.39,538.959,0.0
